STARLINK-35899          
1 66497U 25263N   26068.17994564  .00031635  00000+0  11551-2 0  9999
2 66497  43.0043 353.3380 0001687 249.5468 110.5203 15.27553031 18826
KUIPER-00266            
1 67789U 26030AB  26067.91293632  .00029701  00000+0  98220-3 0  9996
2 67789  51.8807 223.5904 0022313  72.5291 287.8129 15.30874235  4964
