[{"OBJECT_NAME":"STARLINK-35899","OBJECT_ID":"2025-263N","EPOCH":"2026-03-09T04:19:07.303296","MEAN_MOTION":15.27553031,"ECCENTRICITY":0.00016875,"INCLINATION":43.0043,"RA_OF_ASC_NODE":353.338,"ARG_OF_PERICENTER":249.5468,"MEAN_ANOMALY":110.5203,"EPHEMERIS_TYPE":0,"CLASSIFICATION_TYPE":"U","NORAD_CAT_ID":66497,"ELEMENT_SET_NO":999,"REV_AT_EPOCH":1882,"BSTAR":0.0011551446,"MEAN_MOTION_DOT":0.00031635,"MEAN_MOTION_DDOT":0},{"OBJECT_NAME":"KUIPER-00266","OBJECT_ID":"2026-030AB","EPOCH":"2026-03-08T21:54:37.698048","MEAN_MOTION":15.30874235,"ECCENTRICITY":0.0022313,"INCLINATION":51.8807,"RA_OF_ASC_NODE":223.5904,"ARG_OF_PERICENTER":72.5291,"MEAN_ANOMALY":287.8129,"EPHEMERIS_TYPE":0,"CLASSIFICATION_TYPE":"U","NORAD_CAT_ID":67789,"ELEMENT_SET_NO":999,"REV_AT_EPOCH":496,"BSTAR":0.00098219753,"MEAN_MOTION_DOT":0.00029701,"MEAN_MOTION_DDOT":0}]
